STARLINK-34612          
1 64773U 25147U   25213.25002315 -.01599361  00000+0 -34708-1 0  9995
2 64773  53.1605 190.1739 0001295  87.4902 219.2403 15.46972387  4946
STARLINK-34621          
1 64774U 25147V   25213.25002315  .00045833  00000+0  82860-3 0  9997
2 64774  53.1604 190.1638 0001415  83.8409 227.6027 15.49264270  4842
STARLINK-34657          
1 64775U 25147W   25213.25002315  .00056035  00000+0  10100-2 0  9991
2 64775  53.1603 190.1597 0000947  78.5885 234.7660 15.49262363  4948
STARLINK-34637          
1 64776U 25147X   25213.25002315  .00050539  00000+0  91220-3 0  9998
2 64776  53.1603 190.1557 0001343  82.9861 232.2778 15.49267425  4845
STARLINK-34547          
1 64777U 25147Y   25213.25002315  .00050357  00000+0  90897-3 0  9996
2 64777  53.1603 190.1519 0001392  85.3509 231.8302 15.49267384  4891
STARLINK-34537          
1 64778U 25147Z   25213.17028035  .00229358  00000+0  12668-2 0  9993
2 64778  53.1549 188.8036 0001827  30.8917 329.2212 15.78453314  5008
STARLINK-34585          
1 64779U 25147AA  25213.25002315  .00050666  00000+0  91445-3 0  9991
2 64779  53.1602 190.1435 0001331  81.8831 239.1333 15.49267834  4896
STARLINK-34491          
1 64780U 25147AB  25213.25002315  .00069342  00000+0  12458-2 0  9990
2 64780  53.1602 190.1402 0001356  80.2448 242.6832 15.49262894  4946
STARLINK-34582          
1 64781U 25147AC  25213.25002315  .00046997  00000+0  84930-3 0  9997
2 64781  53.1602 190.1359 0001310  81.2344 243.6252 15.49264744  4846
STARLINK-34482          
1 64782U 25147AD  25213.25002315  .00048178  00000+0  87027-3 0  9991
2 64782  53.1603 190.1315 0001325  83.0808 243.6907 15.49265975  4980
STARLINK-34629          
1 64790U 25150A   25213.25002315 -.01256873  00000+0 -10904-1 0  9998
2 64790  69.9988 354.8348 0003921 271.0498 110.8281 15.71466828  2885
STARLINK-34697          
1 64791U 25150B   25213.25002315 -.01253417  00000+0 -10871-1 0  9993
2 64791  69.9990 354.8324 0003963 270.8688 112.9252 15.71465638  2886
STARLINK-34632          
1 64792U 25150C   25213.25002315 -.01249095  00000+0 -10832-1 0  9998
2 64792  69.9990 354.8301 0003725 267.2082 118.5053 15.71463045  2887
STARLINK-34693          
1 64793U 25150D   25213.16670139 -.01324782  00000+0 -11432-1 0  9998
2 64793  69.9990 355.0625 0003399 271.5776   4.7656 15.71741512  2866
STARLINK-34666          
1 64794U 25150E   25213.16670139 -.01323477  00000+0 -11418-1 0  9993
2 64794  69.9992 355.0604 0003519 269.9703   8.2877 15.71742847  2867
STARLINK-34567          
1 64795U 25150F   25213.25002315 -.01267151  00000+0 -11002-1 0  9994
2 64795  69.9990 354.8233 0003738 275.6561 115.8027 15.71471696  2885
STARLINK-34646          
1 64796U 25150G   25213.25002315 -.01264790  00000+0 -10980-1 0  9995
2 64796  69.9988 354.8207 0003701 270.1963 123.1814 15.71470469  2883
STARLINK-34641          
1 64797U 25150H   25213.25002315 -.01270800  00000+0 -11038-1 0  9990
2 64797  69.9997 354.8187 0003418 271.2895 124.0023 15.71474188  2886
STARLINK-34649          
1 64798U 25150J   25213.25002315 -.01270792  00000+0 -11038-1 0  9991
2 64798  69.9997 354.8162 0003402 271.7078 125.5006 15.71474222  2887
STARLINK-34662          
1 64799U 25150K   25213.25002315 -.01269821  00000+0 -11027-1 0  9991
2 64799  69.9998 354.8140 0003723 268.5988 130.5271 15.71473594  2886
STARLINK-34660          
1 64800U 25150L   25213.25002315 -.01272305  00000+0 -11051-1 0  9992
2 64800  69.9997 354.8117 0003628 268.8428 132.1992 15.71474822  2881
STARLINK-34604          
1 64801U 25150M   25213.25002315 -.01273026  00000+0 -11059-1 0  9992
2 64801  69.9997 354.8090 0003486 272.2197 130.7391 15.71474426  2883
STARLINK-34658          
1 64802U 25150N   25213.25002315 -.01272500  00000+0 -11054-1 0  9994
2 64802  69.9998 354.8068 0003386 270.3745 134.4990 15.71475509  2886
STARLINK-34620          
1 64803U 25150P   25213.16670139 -.01316989  00000+0 -11357-1 0  9996
2 64803  69.9991 355.0391 0003557 274.7222  20.7839 15.71739154  2866
STARLINK-34633          
1 64804U 25150Q   25213.25002315 -.01272603  00000+0 -11053-1 0  9999
2 64804  69.9999 354.8020 0003800 275.2212 133.4859 15.71474463  2882
STARLINK-34624          
1 64805U 25150R   25213.25002315 -.01275576  00000+0 -11083-1 0  9995
2 64805  69.9999 354.7948 0003385 271.0707 143.3848 15.71477112  2884
STARLINK-34664          
1 64806U 25150S   25213.25002315 -.01258090  00000+0 -10916-1 0  9992
2 64806  70.0000 354.7991 0003773 269.1642 141.4617 15.71468214  2882
STARLINK-34663          
1 64807U 25150T   25213.25002315 -.01275252  00000+0 -11079-1 0  9993
2 64807  70.0000 354.7968 0003586 269.7361 142.8045 15.71476405  2884
STARLINK-34696          
1 64808U 25150U   25213.16670139 -.01328272  00000+0 -11460-1 0  9994
2 64808  70.0002 355.0270 0003870 270.5127  34.5723 15.71746955  2861
