OBJECT_NAME,OBJECT_ID,EPOCH,MEAN_MOTION,ECCENTRICITY,INCLINATION,RA_OF_ASC_NODE,ARG_OF_PERICENTER,MEAN_ANOMALY,EPHEMERIS_TYPE,CLASSIFICATION_TYPE,NORAD_CAT_ID,ELEMENT_SET_NO,REV_AT_EPOCH,BSTAR,MEAN_MOTION_DOT,MEAN_MOTION_DDOT,sigma_x,sigma_y,sigma_z
STARLINK-34612,2025-147U,2025-08-01T06:00:02.000160,15.46972387,0.0001295,53.1605,190.1739,87.4902,219.2403,0,U,64773,999,494,-0.034708,-0.01599361,0.0,0.5,0.5,0.5
STARLINK-34621,2025-147V,2025-08-01T06:00:02.000160,15.4926427,0.0001415,53.1604,190.1638,83.8409,227.6027,0,U,64774,999,484,0.0008286,0.00045833,0.0,0.5,0.5,0.5
STARLINK-34657,2025-147W,2025-08-01T06:00:02.000160,15.49262363,9.47e-05,53.1603,190.1597,78.5885,234.766,0,U,64775,999,494,0.00101,0.00056035,0.0,0.5,0.5,0.5
STARLINK-34637,2025-147X,2025-08-01T06:00:02.000160,15.49267425,0.0001343,53.1603,190.1557,82.9861,232.2778,0,U,64776,999,484,0.0009122,0.00050539,0.0,0.5,0.5,0.5
STARLINK-34547,2025-147Y,2025-08-01T06:00:02.000160,15.49267384,0.0001392,53.1603,190.1519,85.3509,231.8302,0,U,64777,999,489,0.00090897,0.00050357,0.0,0.5,0.5,0.5
STARLINK-34537,2025-147Z,2025-08-01T04:05:12.222240,15.78453314,0.0001827,53.1549,188.8036,30.8917,329.2212,0,U,64778,999,500,0.0012668,0.00229358,0.0,0.5,0.5,0.5
STARLINK-34585,2025-147AA,2025-08-01T06:00:02.000160,15.49267834,0.0001331,53.1602,190.1435,81.8831,239.1333,0,U,64779,999,489,0.00091445,0.00050666,0.0,0.5,0.5,0.5
STARLINK-34491,2025-147AB,2025-08-01T06:00:02.000160,15.49262894,0.0001356,53.1602,190.1402,80.2448,242.6832,0,U,64780,999,494,0.0012458,0.00069342,0.0,0.5,0.5,0.5
STARLINK-34582,2025-147AC,2025-08-01T06:00:02.000160,15.49264744,0.000131,53.1602,190.1359,81.2344,243.6252,0,U,64781,999,484,0.0008493,0.00046997,0.0,0.5,0.5,0.5
STARLINK-34482,2025-147AD,2025-08-01T06:00:02.000160,15.49265975,0.0001325,53.1603,190.1315,83.0808,243.6907,0,U,64782,999,498,0.00087027,0.00048178,0.0,0.5,0.5,0.5
STARLINK-34629,2025-150A,2025-08-01T06:00:02.000160,15.71466828,0.0003921,69.9988,354.8348,271.0498,110.8281,0,U,64790,999,288,-0.010904,-0.01256873,0.0,0.5,0.5,0.5
STARLINK-34697,2025-150B,2025-08-01T06:00:02.000160,15.71465638,0.0003963,69.999,354.8324,270.8688,112.9252,0,U,64791,999,288,-0.010871,-0.01253417,0.0,0.5,0.5,0.5
STARLINK-34632,2025-150C,2025-08-01T06:00:02.000160,15.71463045,0.0003725,69.999,354.8301,267.2082,118.5053,0,U,64792,999,288,-0.010832,-0.01249095,0.0,0.5,0.5,0.5
STARLINK-34693,2025-150D,2025-08-01T04:00:03.000096,15.71741512,0.0003399,69.999,355.0625,271.5776,4.7656,0,U,64793,999,286,-0.011432,-0.01324782,0.0,0.5,0.5,0.5
STARLINK-34666,2025-150E,2025-08-01T04:00:03.000096,15.71742847,0.0003519,69.9992,355.0604,269.9703,8.2877,0,U,64794,999,286,-0.011418,-0.01323477,0.0,0.5,0.5,0.5
STARLINK-34567,2025-150F,2025-08-01T06:00:02.000160,15.71471696,0.0003738,69.999,354.8233,275.6561,115.8027,0,U,64795,999,288,-0.011002,-0.01267151,0.0,0.5,0.5,0.5
STARLINK-34646,2025-150G,2025-08-01T06:00:02.000160,15.71470469,0.0003701,69.9988,354.8207,270.1963,123.1814,0,U,64796,999,288,-0.01098,-0.0126479,0.0,0.5,0.5,0.5
STARLINK-34641,2025-150H,2025-08-01T06:00:02.000160,15.71474188,0.0003418,69.9997,354.8187,271.2895,124.0023,0,U,64797,999,288,-0.011038,-0.012708,0.0,0.5,0.5,0.5
STARLINK-34649,2025-150J,2025-08-01T06:00:02.000160,15.71474222,0.0003402,69.9997,354.8162,271.7078,125.5006,0,U,64798,999,288,-0.011038,-0.01270792,0.0,0.5,0.5,0.5
STARLINK-34662,2025-150K,2025-08-01T06:00:02.000160,15.71473594,0.0003723,69.9998,354.814,268.5988,130.5271,0,U,64799,999,288,-0.011027,-0.01269821,0.0,0.5,0.5,0.5
STARLINK-34660,2025-150L,2025-08-01T06:00:02.000160,15.71474822,0.0003628,69.9997,354.8117,268.8428,132.1992,0,U,64800,999,288,-0.011051,-0.01272305,0.0,0.5,0.5,0.5
STARLINK-34604,2025-150M,2025-08-01T06:00:02.000160,15.71474426,0.0003486,69.9997,354.809,272.2197,130.7391,0,U,64801,999,288,-0.011059,-0.01273026,0.0,0.5,0.5,0.5
STARLINK-34658,2025-150N,2025-08-01T06:00:02.000160,15.71475509,0.0003386,69.9998,354.8068,270.3745,134.499,0,U,64802,999,288,-0.011054,-0.012725,0.0,0.5,0.5,0.5
STARLINK-34620,2025-150P,2025-08-01T04:00:03.000096,15.71739154,0.0003557,69.9991,355.0391,274.7222,20.7839,0,U,64803,999,286,-0.011357,-0.01316989,0.0,0.5,0.5,0.5
STARLINK-34633,2025-150Q,2025-08-01T06:00:02.000160,15.71474463,0.00038,69.9999,354.802,275.2212,133.4859,0,U,64804,999,288,-0.011053,-0.01272603,0.0,0.5,0.5,0.5
STARLINK-34624,2025-150R,2025-08-01T06:00:02.000160,15.71477112,0.0003385,69.9999,354.7948,271.0707,143.3848,0,U,64805,999,288,-0.011083,-0.01275576,0.0,0.5,0.5,0.5
STARLINK-34664,2025-150S,2025-08-01T06:00:02.000160,15.71468214,0.0003773,70.0,354.7991,269.1642,141.4617,0,U,64806,999,288,-0.010916,-0.0125809,0.0,0.5,0.5,0.5
STARLINK-34663,2025-150T,2025-08-01T06:00:02.000160,15.71476405,0.0003586,70.0,354.7968,269.7361,142.8045,0,U,64807,999,288,-0.011079,-0.01275252,0.0,0.5,0.5,0.5
STARLINK-34696,2025-150U,2025-08-01T04:00:03.000096,15.71746955,0.000387,70.0002,355.027,270.5127,34.5723,0,U,64808,999,286,-0.01146,-0.01328272,0.0,0.5,0.5,0.5
